STARLINK-1805
1 46705U 20073AM  26090.83335647  .00105574  00000+0  14648-2 0  9996
2 46705  53.0483 136.6881 0005982 354.6111  61.1060 15.56225201  5957
STARLINK-1777
1 47122U 20088A   26090.83335647  .00110963  00000+0  15364-2 0  9990
2 47122  53.0510 176.8178 0007023 356.5736 307.0763 15.56248983  5942
